OBJECT_NAME,OBJECT_ID,EPOCH,MEAN_MOTION,ECCENTRICITY,INCLINATION,RA_OF_ASC_NODE,ARG_OF_PERICENTER,MEAN_ANOMALY,EPHEMERIS_TYPE,CLASSIFICATION_TYPE,NORAD_CAT_ID,ELEMENT_SET_NO,REV_AT_EPOCH,BSTAR,MEAN_MOTION_DOT,MEAN_MOTION_DDOT
HST,1990-037B,2026-07-15T12:00:30.574368,15.31063070,.00021916,28.4723,247.0189,106.0764,254.0074,0,U,20580,999,79291,.10487846E-3,.3469E-4,0
POLAR,1996-013A,2026-07-14T18:22:21.811008,1.29846068,.64980873,79.8911,226.7248,208.1291,91.6735,0,U,23802,999,14521,0,.202E-5,0
SWAS,1998-071A,2026-07-15T08:58:30.463680,15.09747550,.00079437,69.8941,154.8226,230.3399,129.7065,0,U,25560,999,50152,.10215672E-3,.1547E-4,0
CXO,1999-040B,2026-07-17T11:15:10.202112,0.37805709,.7787022,56.6226,115.7943,310.0504,0.5333,0,U,25867,999,1743,0,.598E-5,0
XMM-NEWTON,1999-066A,2026-07-18T06:21:44.481888,0.50127855,.4665036,64.3180,282.5861,64.3602,359.9798,0,U,25989,999,2315,0,-.5E-7,0
TERRA,1999-068A,2026-07-15T20:29:08.404800,14.61123975,.0003443,97.9441,245.2610,121.3032,327.0497,0,U,25994,999,41379,.44919E-4,.177E-5,0
CLUSTER II-FM7 (SAMBA),2000-041A,2026-07-16T03:20:59.006976,0.44844033,.908869,149.8273,56.2567,273.7641,359.2168,0,U,26410,999,2044,0,.51232E-3,-.5845E-4
CLUSTER II-FM8 (TANGO),2000-045B,2026-07-14T10:49:09.907104,0.44416740,.9090382,150.0346,57.1658,274.4944,1.9905,0,U,26464,999,2043,0,.19808E-3,0
ODIN,2001-007A,2026-07-15T02:49:01.855776,15.89461170,.00050031,97.3728,239.0985,152.5421,207.6117,0,U,26702,999,39381,.92766465E-3,.26805E-2,.2811748E-4
TIMED,2001-055B,2026-07-15T09:00:31.843584,14.95344710,.00022512,74.0666,178.2592,300.4547,59.6415,0,U,26998,999,33503,.51694429E-4,.53E-5,0
CORIOLIS,2003-001A,2026-07-15T17:39:03.736224,14.19951937,.0014946,98.7135,203.1850,127.7588,232.4945,0,U,27640,999,21827,.37799E-4,.37E-6,0
SORCE,2003-004A,2026-07-15T02:21:46.299456,15.03841818,.00187098,39.9910,102.4143,253.8759,105.9975,0,U,27651,999,27610,.10927068E-3,.1382E-4,0
MOST,2003-031D,2026-07-15T17:19:34.752000,14.21327771,.0010115,98.7053,204.0502,163.5632,196.5875,0,U,27843,999,19476,.26146E-4,.13E-6,0
SCISAT 1,2003-036A,2026-07-15T18:58:07.750272,14.81479402,.0007342,73.9301,114.5124,182.4815,177.6326,0,U,27858,999,23568,.39501E-4,.273E-5,0
SWIFT,2004-047A,2026-07-15T11:10:37.909920,15.71188268,.0002205,20.5527,326.3099,28.4870,331.5697,0,U,28485,999,19131,.30635095E-3,.41696E-3,0
HINODE (SOLAR-B),2006-041A,2026-07-15T12:40:10.474464,14.68658575,.00170525,98.0549,212.2626,193.3810,166.6946,0,U,29479,999,5903,.5958931E-4,.298E-5,0
SHIJIAN-6 02A (SJ-6 02A),2006-046A,2026-07-15T20:22:13.425600,15.17248328,.0004285,97.6344,238.1334,60.8486,299.3175,0,U,29505,999,7661,.11655E-3,.225E-4,0
SHIJIAN-6 02B (SJ-6 02B),2006-046B,2026-07-15T20:53:40.223616,15.01437956,.0013353,97.7143,225.7513,334.0956,25.9598,0,U,29506,999,7504,.34876E-4,.39E-5,0
FGRST (GLAST),2008-029A,2026-07-15T18:37:14.265120,15.24078984,.0007775,25.5829,5.9555,306.4638,53.5183,0,U,33053,999,5,.67765E-4,.203E-4,0
SDO,2010-005A,2026-07-15T08:15:29.769984,1.00277108,.0001836,34.7081,85.9138,46.0485,182.8654,0,U,36395,999,6034,0,-.103E-5,0
CRYOSAT 2,2010-013A,2026-07-15T18:03:19.228032,14.51898564,.0002403,92.0359,284.2460,98.7232,261.4248,0,U,36508,999,86222,.31136E-4,.128E-5,0
X-SAT,2011-015C,2026-07-15T20:51:42.219360,14.25213502,.0012714,98.3523,172.5289,258.7667,101.2085,0,U,37389,999,79176,-.26683E-4,-.104E-5,0
GCOM-W1 (SHIZUKU),2012-025A,2026-07-15T19:17:29.126112,14.57090513,.0001303,98.2023,136.9268,78.0178,336.2810,0,U,38337,999,75320,.55128E-4,.203E-5,0
NUSTAR,2012-031A,2026-07-15T22:00:01.998720,15.09046177,.0007703,6.0248,178.5961,185.1093,153.5955,0,U,38358,999,130,.17284E-3,.3677E-4,0
NEOSSAT,2013-009D,2026-07-15T18:44:30.424416,14.35835788,.0011481,98.4190,16.1354,155.5744,204.5989,0,U,39089,999,70084,.3166E-4,.49E-6,0
BRITE-AUSTRIA,2013-009F,2026-07-15T18:22:01.530336,14.36552666,.0010793,98.4008,15.4957,149.0396,211.1429,0,U,39091,999,70115,.39948E-4,.75E-6,0
IRIS,2013-033A,2026-07-15T12:21:34.101792,14.85937284,.00233476,97.9319,35.7028,223.9146,136.0214,0,U,39197,999,70458,.64789131E-4,.512E-5,0
HISAKI (SPRINT-A),2013-049A,2026-07-15T18:39:57.521376,13.55546830,.0136988,29.7213,74.6504,248.6050,109.9856,0,U,39253,999,63530,.38256E-4,.95E-6,0
CASSIOPE,2013-055A,2026-07-15T17:48:18.456192,15.27441987,.0282773,80.9127,31.9739,326.0242,32.3154,0,U,39265,999,67202,.21046E-3,.19648E-3,-.53165E-6
STSAT-3,2013-066G,2026-07-15T21:02:12.853824,15.02887731,.0008899,97.6190,166.3017,302.3988,57.6376,0,U,39422,999,68851,.11003E-3,.1416E-4,0
SWARM B,2013-067A,2026-07-15T20:55:59.289600,15.28719561,.0002283,87.7460,333.6028,83.2668,276.8841,0,U,39451,999,68762,.68659E-4,.1952E-4,0
